{"type":"FeatureCollection","name":"sevenoaks-boundaries","attribution":"Boundaries: Office for National Statistics licensed under the Open Government Licence v3.0. Contains OS data \u00a9 Crown copyright and database right 2024.","credit":"Boundaries ONS/OS \u00a9 Crown copyright, OGL v3","features":[{"type":"Feature","properties":{"kind":"constituency","code":"E14001465","name":"Sevenoaks"},"geometry":{"type":"Polygon","coordinates":[[[0.29674,51.39705],[0.29661,51.39404],[0.29925,51.39386],[0.30027,51.39427],[0.30021,51.3936],[0.29963,51.39376],[0.29906,51.39302],[0.29868,51.39112],[0.29995,51.38892],[0.29916,51.38721],[0.29863,51.38737],[0.29621,51.38493],[0.29994,51.37969],[0.29797,51.37941],[0.29584,51.37823],[0.29095,51.37194],[0.28568,51.37108],[0.28321,51.36989],[0.28369,51.36791],[0.28309,51.36459],[0.28219,51.36402],[0.28368,51.36111],[0.28232,51.35966],[0.28256,51.35711],[0.28374,51.35706],[0.28423,51.35618],[0.28442,51.35096],[0.27881,51.34715],[0.2778,51.34317],[0.27637,51.34095],[0.27459,51.3397],[0.27636,51.33924],[0.27764,51.33745],[0.28143,51.33638],[0.28674,51.33618],[0.28686,51.33696],[0.28846,51.33729],[0.28835,51.33581],[0.2868,51.33411],[0.2848,51.32979],[0.28462,51.32514],[0.28155,51.32327],[0.28068,51.32177],[0.27856,51.32057],[0.27705,51.31873],[0.27646,51.31917],[0.27529,51.3179],[0.27241,51.31741],[0.2681,51.31578],[0.26752,51.31553],[0.26816,51.31523],[0.2679,51.31413],[0.26514,51.31364],[0.26584,51.31178],[0.26482,51.31148],[0.26437,51.30858],[0.26297,51.30614],[0.26369,51.3053],[0.2633,51.30356],[0.26535,51.30155],[0.26467,51.29706],[0.25845,51.29729],[0.25984,51.29512],[0.26102,51.29492],[0.26016,51.29301],[0.26121,51.29151],[0.26136,51.28914],[0.25857,51.28588],[0.25775,51.27956],[0.25517,51.27641],[0.25944,51.27386],[0.26049,51.27231],[0.26051,51.27021],[0.26315,51.2692],[0.26487,51.26778],[0.26516,51.26007],[0.26459,51.257],[0.26384,51.25579],[0.26228,51.25536],[0.26129,51.25445],[0.25916,51.25495],[0.25448,51.25456],[0.24733,51.25529],[0.24646,51.25188],[0.25009,51.2479],[0.25047,51.24646],[0.24911,51.24291],[0.24771,51.24232],[0.24781,51.23815],[0.24693,51.23767],[0.24118,51.23698],[0.23096,51.23223],[0.22797,51.23519],[0.22456,51.24043],[0.22494,51.24355],[0.22309,51.24497],[0.22192,51.24465],[0.21899,51.24336],[0.21251,51.23803],[0.20812,51.23585],[0.20054,51.23376],[0.19746,51.234],[0.19825,51.23194],[0.19921,51.2317],[0.19839,51.22999],[0.19926,51.22906],[0.19913,51.22798],[0.19573,51.22459],[0.19372,51.22353],[0.18996,51.21926],[0.18795,51.21809],[0.17626,51.21945],[0.17431,51.22019],[0.17316,51.22471],[0.1738,51.22619],[0.17199,51.22541],[0.16251,51.22351],[0.15133,51.22421],[0.14627,51.22325],[0.14197,51.22143],[0.13548,51.22272],[0.13151,51.22475],[0.12921,51.2282],[0.12694,51.22942],[0.12438,51.22739],[0.12193,51.22699],[0.11928,51.22579],[0.11904,51.22392],[0.11331,51.22293],[0.10923,51.22305],[0.10558,51.22236],[0.09912,51.22374],[0.09857,51.22346],[0.09877,51.22426],[0.09659,51.22525],[0.0955,51.22684],[0.08888,51.22721],[0.08801,51.22702],[0.08787,51.22551],[0.08923,51.22568],[0.08963,51.22095],[0.08452,51.22261],[0.08213,51.22063],[0.07897,51.21986],[0.07784,51.21984],[0.07756,51.22044],[0.07711,51.22005],[0.07388,51.2202],[0.07147,51.21954],[0.06751,51.22124],[0.05961,51.22297],[0.05586,51.22321],[0.05097,51.22271],[0.04313,51.22427],[0.04369,51.22583],[0.0423,51.22738],[0.04386,51.22978],[0.04381,51.23089],[0.04606,51.23332],[0.05025,51.2348],[0.05308,51.23676],[0.05393,51.23814],[0.05356,51.23933],[0.05539,51.24056],[0.05627,51.24323],[0.05743,51.24418],[0.05824,51.24778],[0.0571,51.25123],[0.05513,51.25238],[0.05384,51.25408],[0.05427,51.25659],[0.05268,51.26108],[0.04968,51.26569],[0.04961,51.26803],[0.04803,51.27012],[0.04544,51.27645],[0.04536,51.27792],[0.04817,51.28565],[0.04674,51.28859],[0.0424,51.29267],[0.04477,51.29309],[0.04573,51.294],[0.05079,51.29399],[0.05439,51.29209],[0.05605,51.2924],[0.05851,51.28935],[0.06756,51.29038],[0.07337,51.29161],[0.08153,51.29182],[0.08569,51.29308],[0.08926,51.29609],[0.09118,51.29683],[0.08621,51.30017],[0.08543,51.30252],[0.08282,51.30563],[0.08488,51.30604],[0.08409,51.30805],[0.08475,51.30835],[0.08357,51.31053],[0.08507,51.3126],[0.08564,51.31478],[0.08503,51.31602],[0.08779,51.31831],[0.09618,51.32129],[0.10018,51.32407],[0.10079,51.32559],[0.10324,51.326],[0.1049,51.32741],[0.10724,51.32752],[0.10976,51.32668],[0.11015,51.32804],[0.11421,51.3274],[0.11574,51.32951],[0.11664,51.33],[0.1179,51.32965],[0.11789,51.33062],[0.12168,51.33364],[0.12001,51.33474],[0.1183,51.3384],[0.11901,51.33868],[0.11847,51.33998],[0.11728,51.33978],[0.11668,51.3413],[0.11723,51.34316],[0.11846,51.34415],[0.12224,51.34466],[0.12521,51.34587],[0.13167,51.34519],[0.13178,51.34551],[0.13696,51.34417],[0.1362,51.34594],[0.1372,51.34587],[0.13827,51.34709],[0.13944,51.34698],[0.13871,51.34752],[0.14128,51.34953],[0.14098,51.35015],[0.14262,51.35073],[0.14288,51.35266],[0.14511,51.35576],[0.1459,51.35822],[0.14485,51.35844],[0.14539,51.36034],[0.14452,51.36117],[0.14505,51.36285],[0.14835,51.36637],[0.14725,51.36697],[0.14944,51.36916],[0.15152,51.36828],[0.15206,51.36969],[0.15013,51.37016],[0.15121,51.37219],[0.1496,51.37358],[0.15174,51.37544],[0.15254,51.37523],[0.15324,51.37804],[0.15097,51.37909],[0.15113,51.3799],[0.14961,51.38009],[0.14961,51.38109],[0.15037,51.38109],[0.1498,51.38487],[0.15046,51.38602],[0.14865,51.38867],[0.14984,51.39087],[0.14753,51.39216],[0.14774,51.3928],[0.15827,51.39224],[0.16238,51.39249],[0.15898,51.39582],[0.15722,51.40114],[0.15525,51.40397],[0.15282,51.40627],[0.1511,51.40664],[0.14869,51.40813],[0.14931,51.40914],[0.15938,51.40837],[0.16145,51.40716],[0.16349,51.4068],[0.16393,51.40841],[0.16561,51.40824],[0.16636,51.41075],[0.16493,51.41099],[0.17946,51.41563],[0.17752,51.41774],[0.18441,51.42033],[0.18217,51.42211],[0.18403,51.42294],[0.18396,51.42476],[0.18755,51.42548],[0.1885,51.42422],[0.19031,51.42439],[0.19008,51.42557],[0.19586,51.42614],[0.19575,51.42665],[0.19513,51.42662],[0.19576,51.42825],[0.19427,51.429],[0.19618,51.42937],[0.19631,51.43008],[0.19943,51.43053],[0.19957,51.43015],[0.20027,51.43032],[0.19997,51.43109],[0.20406,51.43171],[0.21059,51.43376],[0.21464,51.4343],[0.22205,51.42926],[0.22394,51.42864],[0.22537,51.42906],[0.22548,51.43116],[0.226,51.43106],[0.23003,51.42947],[0.23365,51.42694],[0.23444,51.42459],[0.23274,51.4231],[0.2371,51.41995],[0.23957,51.41265],[0.24315,51.41281],[0.2448,51.41022],[0.24482,51.4084],[0.24574,51.40771],[0.25884,51.4078],[0.26913,51.40742],[0.2722,51.40674],[0.27276,51.40757],[0.27405,51.40709],[0.27489,51.40746],[0.27761,51.40692],[0.27978,51.40286],[0.27749,51.40158],[0.2839,51.39965],[0.29674,51.39705]]]}},{"type":"Feature","properties":{"kind":"ward","code":"E05009956","name":"Ash and New Ash Green","label":[0.29891,51.36133]},"geometry":{"type":"Polygon","coordinates":[[[0.30818,51.34279],[0.30689,51.34313],[0.30868,51.34855],[0.30807,51.34913],[0.30467,51.35081],[0.29632,51.35188],[0.29153,51.34537],[0.28577,51.34499],[0.28538,51.34005],[0.28835,51.33958],[0.28846,51.33729],[0.28686,51.33696],[0.28674,51.33618],[0.28143,51.33638],[0.27764,51.33745],[0.27636,51.33924],[0.27459,51.3397],[0.27637,51.34095],[0.2778,51.34317],[0.27881,51.34715],[0.28442,51.35096],[0.28423,51.35618],[0.28374,51.35706],[0.28256,51.35711],[0.28232,51.35966],[0.28368,51.36111],[0.28219,51.36402],[0.28309,51.36459],[0.28369,51.36791],[0.28321,51.36989],[0.28568,51.37108],[0.29067,51.37178],[0.29397,51.37578],[0.29679,51.37544],[0.29952,51.37384],[0.30118,51.37356],[0.30102,51.37138],[0.30184,51.37173],[0.30487,51.37114],[0.30364,51.37338],[0.30681,51.37407],[0.3078,51.37229],[0.31276,51.37223],[0.31144,51.37042],[0.31044,51.37036],[0.31178,51.36833],[0.31488,51.36885],[0.31517,51.36775],[0.31308,51.36489],[0.31565,51.36432],[0.3188,51.36507],[0.3152,51.35824],[0.3154,51.357],[0.31407,51.35544],[0.31369,51.35365],[0.31193,51.35106],[0.31105,51.35088],[0.31116,51.34809],[0.31027,51.34612],[0.31373,51.34596],[0.31409,51.34462],[0.31191,51.34462],[0.31198,51.34345],[0.31035,51.34361],[0.30993,51.34432],[0.30875,51.34451],[0.30818,51.34279]]]}},{"type":"Feature","properties":{"kind":"ward","code":"E05011558","name":"Brasted, Chevening and Sundridge","label":[0.12573,51.28459]},"geometry":{"type":"Polygon","coordinates":[[[0.14631,51.31269],[0.1474,51.30997],[0.15563,51.30087],[0.16216,51.29206],[0.16536,51.29086],[0.16202,51.28904],[0.16377,51.28786],[0.16815,51.28794],[0.16809,51.28721],[0.16302,51.28397],[0.16556,51.28418],[0.16531,51.28319],[0.16311,51.28271],[0.16403,51.28062],[0.16322,51.27829],[0.16474,51.26505],[0.16368,51.26104],[0.16076,51.25987],[0.1604,51.25914],[0.16336,51.25572],[0.16354,51.25067],[0.16541,51.24884],[0.1636,51.24123],[0.16589,51.23881],[0.16591,51.23765],[0.16901,51.23539],[0.16654,51.23468],[0.16482,51.23477],[0.16296,51.23344],[0.16449,51.23285],[0.16451,51.23199],[0.16344,51.23033],[0.16305,51.22707],[0.16152,51.2255],[0.16152,51.22434],[0.16255,51.22353],[0.15133,51.22421],[0.14627,51.22325],[0.14197,51.22143],[0.1354,51.22275],[0.13151,51.22475],[0.12921,51.2282],[0.12694,51.22942],[0.12438,51.22739],[0.12193,51.22699],[0.11934,51.22572],[0.11904,51.22392],[0.11331,51.22293],[0.10923,51.22305],[0.10535,51.22236],[0.09912,51.22374],[0.09857,51.22346],[0.09877,51.22426],[0.09659,51.22525],[0.09432,51.22852],[0.09549,51.23273],[0.09452,51.23504],[0.09498,51.23763],[0.09368,51.23883],[0.09493,51.24204],[0.09736,51.24428],[0.09718,51.24703],[0.09782,51.24664],[0.09781,51.24716],[0.09699,51.24953],[0.09572,51.24922],[0.09472,51.25006],[0.09349,51.25344],[0.09165,51.2547],[0.09272,51.25846],[0.09262,51.26157],[0.08895,51.26504],[0.08963,51.2664],[0.09159,51.26675],[0.09397,51.269],[0.09475,51.27141],[0.08937,51.27924],[0.08742,51.28464],[0.08507,51.28857],[0.08158,51.29184],[0.08569,51.29308],[0.08926,51.29609],[0.11501,51.30902],[0.12246,51.31127],[0.13154,51.3115],[0.13317,51.3157],[0.14007,51.31346],[0.14631,51.31269]]]}},{"type":"Feature","properties":{"kind":"ward","code":"E05005010","name":"Cowden and Hever","label":[0.10238,51.15758]},"geometry":{"type":"Polygon","coordinates":[[[0.0955,51.22684],[0.09659,51.22525],[0.09877,51.22426],[0.09857,51.22346],[0.09912,51.22374],[0.10535,51.22236],[0.10923,51.22305],[0.11331,51.22293],[0.11904,51.22392],[0.11934,51.22572],[0.12052,51.22341],[0.12056,51.22072],[0.12208,51.21724],[0.12466,51.21517],[0.12542,51.21227],[0.12284,51.20983],[0.12042,51.20856],[0.11994,51.20743],[0.12066,51.20645],[0.11909,51.20277],[0.12011,51.20253],[0.12114,51.19969],[0.12242,51.19977],[0.12478,51.19695],[0.12624,51.19611],[0.12534,51.19596],[0.12506,51.19527],[0.12383,51.1919],[0.1244,51.18903],[0.12149,51.18332],[0.12253,51.1801],[0.12221,51.17896],[0.11805,51.17161],[0.1191,51.17113],[0.12081,51.16683],[0.11822,51.16639],[0.12198,51.166],[0.12607,51.16189],[0.12611,51.16035],[0.12792,51.15918],[0.1357,51.15705],[0.13649,51.15551],[0.13639,51.1527],[0.13737,51.15187],[0.13563,51.14995],[0.13602,51.14701],[0.13312,51.14728],[0.13279,51.14685],[0.13088,51.14687],[0.12857,51.14745],[0.12593,51.14695],[0.12194,51.14721],[0.12006,51.14642],[0.11871,51.14667],[0.11535,51.14589],[0.11461,51.14519],[0.11177,51.14463],[0.10967,51.14431],[0.10863,51.14467],[0.10548,51.14408],[0.10328,51.14256],[0.10028,51.14263],[0.09951,51.14212],[0.09601,51.14232],[0.09385,51.14152],[0.09065,51.14117],[0.09024,51.14147],[0.08884,51.14099],[0.08832,51.14129],[0.08787,51.14093],[0.08591,51.14208],[0.08452,51.14161],[0.08405,51.1419],[0.07819,51.13995],[0.07056,51.13968],[0.06814,51.14067],[0.06328,51.14112],[0.06248,51.14176],[0.05876,51.14083],[0.05585,51.14247],[0.05125,51.14223],[0.05002,51.14265],[0.04989,51.14391],[0.05185,51.14493],[0.05481,51.14953],[0.05468,51.15043],[0.05241,51.15075],[0.05122,51.15168],[0.05149,51.15725],[0.05631,51.15798],[0.05812,51.15695],[0.06934,51.16251],[0.07527,51.16207],[0.08046,51.16295],[0.08286,51.16236],[0.08219,51.16553],[0.08407,51.16831],[0.08441,51.17015],[0.0855,51.17033],[0.08551,51.17201],[0.08751,51.17151],[0.09027,51.17177],[0.09359,51.17072],[0.09463,51.17224],[0.09229,51.17468],[0.09325,51.17632],[0.09132,51.17823],[0.08937,51.18182],[0.091,51.18253],[0.09181,51.18236],[0.09341,51.18348],[0.09863,51.19069],[0.09732,51.19098],[0.09618,51.19227],[0.09698,51.19549],[0.09592,51.19646],[0.09624,51.19703],[0.09499,51.19788],[0.08902,51.19798],[0.0923,51.20021],[0.09062,51.20072],[0.09321,51.20464],[0.0898,51.20553],[0.08304,51.20619],[0.08357,51.20773],[0.08238,51.20841],[0.08284,51.21041],[0.08341,51.21044],[0.08507,51.21384],[0.08346,51.21457],[0.08397,51.21548],[0.08253,51.21602],[0.084,51.21692],[0.08355,51.21739],[0.0881,51.21852],[0.08862,51.21994],[0.09185,51.22042],[0.08963,51.22095],[0.08926,51.22558],[0.08787,51.22551],[0.08801,51.22702],[0.0955,51.22684]]]}},{"type":"Feature","properties":{"kind":"ward","code":"E05005011","name":"Crockenhill and Well Hill","label":[0.16725,51.38069]},"geometry":{"type":"Polygon","coordinates":[[[0.16131,51.39237],[0.16154,51.39202],[0.16322,51.39224],[0.16809,51.39009],[0.17272,51.38922],[0.18525,51.38968],[0.19055,51.38396],[0.18673,51.37955],[0.18266,51.37641],[0.16571,51.36818],[0.15999,51.36414],[0.15763,51.36143],[0.15939,51.3611],[0.16023,51.36241],[0.16559,51.3618],[0.16768,51.3626],[0.16991,51.36058],[0.16847,51.36022],[0.16945,51.36],[0.1681,51.35845],[0.16543,51.35805],[0.16715,51.35471],[0.17002,51.35521],[0.1699,51.35556],[0.17834,51.35337],[0.17553,51.35092],[0.17756,51.34978],[0.17347,51.34613],[0.16626,51.34653],[0.16619,51.34619],[0.16225,51.34668],[0.16199,51.3457],[0.15768,51.34625],[0.157,51.34336],[0.15531,51.34393],[0.14899,51.34366],[0.14611,51.34442],[0.1436,51.34589],[0.14098,51.35015],[0.14262,51.35073],[0.14288,51.35266],[0.14363,51.35302],[0.14565,51.35721],[0.1459,51.35822],[0.14485,51.35844],[0.14539,51.36034],[0.1445,51.36106],[0.14505,51.36285],[0.14835,51.36637],[0.14728,51.36701],[0.14944,51.36916],[0.15162,51.36838],[0.15206,51.36969],[0.15013,51.37016],[0.15121,51.37219],[0.1496,51.37358],[0.15174,51.37544],[0.15254,51.37523],[0.15324,51.37804],[0.15097,51.37909],[0.15113,51.3799],[0.14961,51.38009],[0.14961,51.38109],[0.15037,51.38109],[0.1498,51.38487],[0.15046,51.38602],[0.14865,51.38867],[0.14984,51.39087],[0.14753,51.39216],[0.14774,51.3928],[0.16131,51.39237]]]}},{"type":"Feature","properties":{"kind":"ward","code":"E05005012","name":"Dunton Green and Riverhead","label":[0.1698,51.29691]},"geometry":{"type":"Polygon","coordinates":[[[0.16207,51.31656],[0.16411,51.31267],[0.16988,51.30607],[0.17072,51.30377],[0.18612,51.29893],[0.1851,51.29762],[0.18293,51.29712],[0.17856,51.29313],[0.17619,51.29198],[0.17575,51.29106],[0.17641,51.29024],[0.1756,51.28996],[0.17358,51.29038],[0.17178,51.2891],[0.17038,51.28931],[0.17153,51.28533],[0.1764,51.28163],[0.17506,51.27948],[0.17331,51.27953],[0.17368,51.27822],[0.17471,51.27823],[0.17478,51.27764],[0.17214,51.27566],[0.17246,51.27392],[0.17071,51.27236],[0.17295,51.27002],[0.17399,51.26624],[0.17583,51.26432],[0.17575,51.26373],[0.17417,51.26288],[0.17104,51.26273],[0.17344,51.25566],[0.17692,51.25127],[0.17519,51.25009],[0.17205,51.25118],[0.16573,51.25129],[0.16354,51.25067],[0.16336,51.25572],[0.1604,51.25914],[0.16076,51.25987],[0.16368,51.26104],[0.16474,51.26505],[0.16322,51.27829],[0.16403,51.28062],[0.16311,51.28271],[0.16531,51.28319],[0.16556,51.28418],[0.16302,51.28397],[0.16809,51.28721],[0.16815,51.28794],[0.16377,51.28786],[0.16202,51.28904],[0.16536,51.29086],[0.16216,51.29206],[0.15563,51.30087],[0.1474,51.30997],[0.14631,51.31269],[0.14733,51.31492],[0.15537,51.31476],[0.15734,51.31795],[0.16207,51.31656]]]}},{"type":"Feature","properties":{"kind":"ward","code":"E05005013","name":"Edenbridge North and East","label":[0.05702,51.21339]},"geometry":{"type":"Polygon","coordinates":[[[0.08963,51.22095],[0.09185,51.22042],[0.08862,51.21994],[0.0881,51.21852],[0.08453,51.21784],[0.08253,51.21602],[0.08397,51.21548],[0.08346,51.21457],[0.08507,51.21384],[0.08341,51.21044],[0.08284,51.21041],[0.08238,51.20841],[0.08357,51.20773],[0.08304,51.20619],[0.0898,51.20553],[0.09321,51.20464],[0.09062,51.20072],[0.0923,51.20021],[0.08902,51.19798],[0.09499,51.19788],[0.09698,51.19549],[0.09618,51.19227],[0.09866,51.19019],[0.09773,51.18984],[0.09341,51.18348],[0.09241,51.18305],[0.07411,51.19553],[0.07278,51.19419],[0.06987,51.19398],[0.06916,51.19507],[0.06798,51.19551],[0.06567,51.19459],[0.06315,51.2021],[0.05025,51.20474],[0.04678,51.20607],[0.04336,51.20823],[0.04164,51.20715],[0.03967,51.2067],[0.03729,51.20706],[0.03539,51.20849],[0.03359,51.21132],[0.03459,51.21166],[0.03402,51.21203],[0.03472,51.21348],[0.0336,51.21434],[0.03628,51.21658],[0.04115,51.21662],[0.04145,51.21825],[0.04317,51.22016],[0.04231,51.22258],[0.04283,51.22461],[0.05097,51.22271],[0.05586,51.22321],[0.05961,51.22297],[0.06751,51.22124],[0.07148,51.21954],[0.07388,51.2202],[0.07554,51.21989],[0.07756,51.22044],[0.07784,51.21984],[0.08098,51.2203],[0.08291,51.22108],[0.08452,51.22261],[0.08963,51.22095]]]}},{"type":"Feature","properties":{"kind":"ward","code":"E05005014","name":"Edenbridge South and West","label":[0.07109,51.17951]},"geometry":{"type":"Polygon","coordinates":[[[0.09241,51.18305],[0.09181,51.18236],[0.091,51.18253],[0.08937,51.18182],[0.09132,51.17823],[0.09325,51.17632],[0.09229,51.17468],[0.09463,51.17224],[0.09359,51.17072],[0.09027,51.17177],[0.08751,51.17151],[0.08551,51.17201],[0.0855,51.17033],[0.08441,51.17015],[0.08407,51.16831],[0.08219,51.16553],[0.08286,51.16236],[0.08046,51.16295],[0.07527,51.16207],[0.06934,51.16251],[0.05812,51.15695],[0.05631,51.15798],[0.05149,51.15725],[0.0489,51.15882],[0.04751,51.16124],[0.04862,51.16442],[0.04694,51.16487],[0.04639,51.16621],[0.04709,51.16772],[0.04703,51.16893],[0.04625,51.16919],[0.04618,51.17183],[0.04669,51.17348],[0.05178,51.17776],[0.0526,51.18062],[0.04981,51.18291],[0.04944,51.18502],[0.04736,51.18556],[0.04626,51.18734],[0.04686,51.18778],[0.04517,51.18862],[0.04733,51.19],[0.04782,51.19174],[0.04602,51.19216],[0.04455,51.19185],[0.04405,51.19262],[0.04277,51.19299],[0.04042,51.19666],[0.04068,51.19761],[0.03839,51.19883],[0.03916,51.20087],[0.03579,51.20421],[0.03729,51.20706],[0.03967,51.2067],[0.04164,51.20715],[0.04336,51.20823],[0.04678,51.20607],[0.05025,51.20474],[0.06315,51.2021],[0.06567,51.19459],[0.06798,51.19551],[0.06916,51.19507],[0.06987,51.19398],[0.07278,51.19419],[0.07411,51.19553],[0.09241,51.18305]]]}},{"type":"Feature","properties":{"kind":"ward","code":"E05009958","name":"Eynsford","label":[0.19782,51.36559]},"geometry":{"type":"Polygon","coordinates":[[[0.23146,51.35411],[0.23145,51.35253],[0.22873,51.34967],[0.22874,51.34899],[0.22988,51.34883],[0.22762,51.34682],[0.22778,51.34518],[0.23097,51.34054],[0.23097,51.33907],[0.22861,51.33869],[0.23037,51.33489],[0.22963,51.33445],[0.22867,51.33497],[0.22752,51.33667],[0.22433,51.33558],[0.2242,51.3389],[0.21942,51.34045],[0.21804,51.3388],[0.21956,51.33641],[0.21849,51.33619],[0.21842,51.33496],[0.21751,51.33415],[0.21629,51.33406],[0.21603,51.33214],[0.21522,51.33219],[0.21389,51.33051],[0.21441,51.3291],[0.21205,51.32744],[0.21169,51.32824],[0.20925,51.32947],[0.20964,51.3317],[0.20848,51.33518],[0.20425,51.33572],[0.20571,51.33942],[0.20449,51.33961],[0.20651,51.34496],[0.20499,51.34558],[0.20181,51.34534],[0.20046,51.34616],[0.20006,51.34904],[0.19869,51.35062],[0.19667,51.35173],[0.18049,51.35295],[0.1699,51.35556],[0.17002,51.35521],[0.16715,51.35471],[0.16543,51.35805],[0.1681,51.35845],[0.16945,51.36],[0.16847,51.36022],[0.16991,51.36058],[0.16768,51.3626],[0.16559,51.3618],[0.16023,51.36241],[0.15939,51.3611],[0.15763,51.36143],[0.15999,51.36414],[0.16571,51.36818],[0.18266,51.37641],[0.18673,51.37955],[0.19055,51.38396],[0.19143,51.38291],[0.19724,51.38171],[0.20101,51.37931],[0.20241,51.37933],[0.20311,51.38007],[0.21462,51.3765],[0.21996,51.37555],[0.2209,51.37587],[0.22824,51.37122],[0.2298,51.3718],[0.23073,51.37004],[0.22803,51.36848],[0.22735,51.36609],[0.22826,51.36541],[0.22856,51.36314],[0.23219,51.3621],[0.23262,51.36049],[0.23643,51.35784],[0.23389,51.35664],[0.23146,51.35411]]]}},{"type":"Feature","properties":{"kind":"ward","code":"E05005016","name":"Farningham, Horton Kirby and South Darenth","label":[0.2491,51.38464]},"geometry":{"type":"Polygon","coordinates":[[[0.29327,51.39798],[0.28799,51.3946],[0.28634,51.39235],[0.2825,51.39166],[0.28243,51.39037],[0.28037,51.39069],[0.27791,51.38665],[0.27641,51.38663],[0.27308,51.38474],[0.2696,51.38091],[0.26912,51.37967],[0.26971,51.37903],[0.26705,51.37419],[0.26411,51.37266],[0.26168,51.37005],[0.25945,51.371],[0.25808,51.37243],[0.25535,51.37181],[0.25482,51.37066],[0.25608,51.36976],[0.25359,51.3689],[0.25401,51.36816],[0.25157,51.36815],[0.25043,51.36704],[0.24858,51.3674],[0.24657,51.36652],[0.25145,51.36118],[0.2523,51.35772],[0.24939,51.35527],[0.24383,51.35375],[0.24469,51.35181],[0.24269,51.35206],[0.24031,51.35143],[0.23588,51.35364],[0.2347,51.35478],[0.233,51.35356],[0.23146,51.35411],[0.23389,51.35664],[0.23643,51.35784],[0.23262,51.36049],[0.23219,51.3621],[0.22856,51.36314],[0.22826,51.36541],[0.22735,51.36609],[0.22803,51.36848],[0.23073,51.37004],[0.2298,51.3718],[0.22824,51.37122],[0.2209,51.37587],[0.21996,51.37555],[0.21462,51.3765],[0.20311,51.38007],[0.20241,51.37933],[0.20101,51.37931],[0.19724,51.38171],[0.19143,51.38291],[0.19055,51.38396],[0.19661,51.39259],[0.20324,51.39803],[0.20615,51.39768],[0.20753,51.39684],[0.21284,51.39676],[0.21387,51.39608],[0.22751,51.39517],[0.23563,51.39666],[0.23831,51.39631],[0.23888,51.39708],[0.24055,51.39762],[0.24018,51.39837],[0.24103,51.39957],[0.24021,51.40114],[0.24189,51.401],[0.24564,51.40543],[0.24574,51.40771],[0.26913,51.40742],[0.2722,51.40674],[0.27276,51.40757],[0.27405,51.40709],[0.27489,51.40746],[0.27761,51.40692],[0.27978,51.40286],[0.27749,51.40158],[0.28404,51.39962],[0.29327,51.39798]]]}},{"type":"Feature","properties":{"kind":"ward","code":"E05005017","name":"Fawkham and West Kingsdown","label":[0.25377,51.33979]},"geometry":{"type":"Polygon","coordinates":[[[0.29674,51.39705],[0.29661,51.39404],[0.29925,51.39386],[0.30027,51.39427],[0.30021,51.3936],[0.29963,51.39376],[0.29906,51.39302],[0.29868,51.39112],[0.29995,51.38892],[0.29916,51.38721],[0.29863,51.38737],[0.29621,51.38493],[0.29994,51.37969],[0.29797,51.37941],[0.2961,51.37842],[0.29067,51.37178],[0.28568,51.37108],[0.28321,51.36989],[0.28369,51.36791],[0.28309,51.36459],[0.28219,51.36402],[0.28368,51.36111],[0.28232,51.35966],[0.28256,51.35711],[0.28374,51.35706],[0.28423,51.35618],[0.28442,51.35096],[0.27881,51.34715],[0.2778,51.34317],[0.27637,51.34095],[0.27459,51.3397],[0.27636,51.33924],[0.27764,51.33745],[0.28143,51.33638],[0.28674,51.33618],[0.28686,51.33696],[0.28846,51.33729],[0.28835,51.33581],[0.2868,51.33411],[0.2848,51.32979],[0.28448,51.3249],[0.28163,51.32333],[0.28068,51.32177],[0.27856,51.32057],[0.27705,51.31873],[0.27646,51.31917],[0.27529,51.3179],[0.27241,51.31741],[0.26752,51.31553],[0.26126,51.31544],[0.25542,51.31727],[0.25272,51.31724],[0.24981,51.31826],[0.24689,51.31822],[0.24359,51.31712],[0.24104,51.31726],[0.23826,51.31832],[0.23626,51.31987],[0.23258,51.32533],[0.24061,51.32937],[0.23962,51.33015],[0.23204,51.33295],[0.23037,51.33489],[0.22861,51.33869],[0.23097,51.33907],[0.23097,51.34054],[0.22778,51.34518],[0.22762,51.34682],[0.22988,51.34883],[0.22874,51.34899],[0.22873,51.34967],[0.23145,51.35253],[0.23146,51.35411],[0.233,51.35356],[0.2347,51.35478],[0.23588,51.35364],[0.24031,51.35143],[0.24269,51.35206],[0.24469,51.35181],[0.24383,51.35375],[0.24939,51.35527],[0.2523,51.35772],[0.25145,51.36118],[0.24657,51.36652],[0.24858,51.3674],[0.25043,51.36704],[0.25157,51.36815],[0.25401,51.36816],[0.25359,51.3689],[0.25608,51.36976],[0.25482,51.37066],[0.25535,51.37181],[0.25808,51.37243],[0.25945,51.371],[0.26168,51.37005],[0.26411,51.37266],[0.26705,51.37419],[0.26971,51.37903],[0.26912,51.37967],[0.2696,51.38091],[0.27308,51.38474],[0.27641,51.38663],[0.27791,51.38665],[0.28037,51.39069],[0.28243,51.39037],[0.2825,51.39166],[0.28634,51.39235],[0.28799,51.3946],[0.29327,51.39798],[0.29674,51.39705]]]}},{"type":"Feature","properties":{"kind":"ward","code":"E05005018","name":"Halstead, Knockholt and Badgers Mount","label":[0.14128,51.33204]},"geometry":{"type":"Polygon","coordinates":[[[0.157,51.34336],[0.16412,51.33974],[0.16604,51.3393],[0.16634,51.3387],[0.16238,51.33114],[0.1604,51.32893],[0.15987,51.32595],[0.15831,51.32346],[0.16129,51.31968],[0.16245,51.3164],[0.15734,51.31795],[0.15537,51.31476],[0.14733,51.31492],[0.14631,51.31269],[0.14007,51.31346],[0.13317,51.3157],[0.13154,51.3115],[0.12246,51.31127],[0.11501,51.30902],[0.09118,51.29683],[0.0894,51.29776],[0.08621,51.30017],[0.08543,51.30252],[0.08282,51.30563],[0.08488,51.30604],[0.08409,51.30805],[0.08475,51.30835],[0.08357,51.31053],[0.08507,51.3126],[0.08564,51.31478],[0.08503,51.31602],[0.08779,51.31831],[0.09618,51.32129],[0.10018,51.32407],[0.10079,51.32559],[0.10324,51.326],[0.1049,51.32741],[0.10724,51.32752],[0.10976,51.32668],[0.11015,51.32804],[0.11421,51.3274],[0.11574,51.32951],[0.11664,51.33],[0.1179,51.32965],[0.11789,51.33062],[0.12168,51.33364],[0.12001,51.33474],[0.1183,51.3384],[0.11901,51.33868],[0.11847,51.33998],[0.11728,51.33978],[0.11668,51.3413],[0.11723,51.34316],[0.11846,51.34415],[0.12224,51.34466],[0.12521,51.34587],[0.13167,51.34519],[0.13178,51.34551],[0.13696,51.34417],[0.1362,51.34594],[0.1372,51.34587],[0.13827,51.34709],[0.13944,51.34698],[0.13871,51.34752],[0.14129,51.34978],[0.1436,51.34589],[0.14611,51.34442],[0.14899,51.34366],[0.15531,51.34393],[0.157,51.34336]]]}},{"type":"Feature","properties":{"kind":"ward","code":"E05009959","name":"Hartley and Hodsoll Street","label":[0.3158,51.38145]},"geometry":{"type":"Polygon","coordinates":[[[0.33668,51.38654],[0.33369,51.38314],[0.33384,51.38088],[0.33272,51.37852],[0.33145,51.37128],[0.33268,51.36829],[0.33515,51.36966],[0.33669,51.36976],[0.33526,51.36507],[0.33557,51.36063],[0.33705,51.36001],[0.33889,51.35646],[0.34162,51.35454],[0.34229,51.34835],[0.34064,51.34364],[0.3415,51.34352],[0.34079,51.33974],[0.34472,51.33866],[0.34473,51.33753],[0.34366,51.33259],[0.3416,51.32922],[0.33733,51.32978],[0.3347,51.3311],[0.32962,51.33238],[0.32188,51.33661],[0.31744,51.33781],[0.31249,51.34098],[0.30818,51.34279],[0.30875,51.34451],[0.30993,51.34432],[0.31035,51.34361],[0.31198,51.34345],[0.31191,51.34462],[0.31409,51.34462],[0.31373,51.34596],[0.31027,51.34612],[0.31116,51.34809],[0.31105,51.35088],[0.31193,51.35106],[0.31369,51.35365],[0.31407,51.35544],[0.3154,51.357],[0.3152,51.35824],[0.3188,51.36507],[0.31565,51.36432],[0.31308,51.36489],[0.31517,51.36775],[0.31488,51.36885],[0.31178,51.36833],[0.31044,51.37036],[0.31144,51.37042],[0.31276,51.37223],[0.3078,51.37229],[0.30681,51.37407],[0.30364,51.37338],[0.30487,51.37114],[0.30184,51.37173],[0.30102,51.37138],[0.30118,51.37356],[0.29952,51.37384],[0.29679,51.37544],[0.29397,51.37578],[0.2961,51.37842],[0.29797,51.37941],[0.29994,51.37969],[0.29621,51.38493],[0.29863,51.38737],[0.29916,51.38721],[0.29995,51.38892],[0.29868,51.39112],[0.29906,51.39302],[0.29963,51.39376],[0.30021,51.3936],[0.30027,51.39427],[0.29925,51.39386],[0.29661,51.39404],[0.29674,51.39705],[0.32559,51.3889],[0.33668,51.38654]]]}},{"type":"Feature","properties":{"kind":"ward","code":"E05009960","name":"Hextable","label":[0.18211,51.41069]},"geometry":{"type":"Polygon","coordinates":[[[0.20584,51.40968],[0.19813,51.40989],[0.19746,51.40952],[0.19066,51.41097],[0.18919,51.40629],[0.1846,51.40488],[0.18484,51.40396],[0.17897,51.40586],[0.17491,51.40656],[0.16918,51.40648],[0.16954,51.40743],[0.1669,51.40742],[0.16683,51.40861],[0.16572,51.4086],[0.16636,51.41075],[0.16493,51.41099],[0.17808,51.41551],[0.19976,51.41798],[0.20078,51.41574],[0.20325,51.41379],[0.20531,51.41321],[0.20584,51.40968]]]}},{"type":"Feature","properties":{"kind":"ward","code":"E05005021","name":"Kemsing","label":[0.24045,51.30672]},"geometry":{"type":"Polygon","coordinates":[[[0.23529,51.32127],[0.23826,51.31832],[0.24104,51.31726],[0.24359,51.31712],[0.24689,51.31822],[0.24981,51.31826],[0.25272,51.31724],[0.25542,51.31727],[0.26126,51.31544],[0.26816,51.31523],[0.2679,51.31413],[0.26514,51.31364],[0.26584,51.31178],[0.26499,51.3118],[0.26437,51.30858],[0.26303,51.30676],[0.26369,51.3053],[0.2633,51.30356],[0.26535,51.30155],[0.26467,51.29706],[0.25845,51.29729],[0.25954,51.29573],[0.25466,51.29554],[0.25259,51.2964],[0.24919,51.29665],[0.24471,51.2957],[0.24282,51.29616],[0.23765,51.29597],[0.23504,51.29619],[0.23392,51.29694],[0.22973,51.29714],[0.2269,51.29844],[0.22602,51.29812],[0.22195,51.29884],[0.21987,51.30006],[0.21565,51.29962],[0.21527,51.30017],[0.21261,51.29952],[0.20644,51.30022],[0.20584,51.29964],[0.20297,51.30047],[0.20431,51.30557],[0.2083,51.31164],[0.21401,51.31079],[0.21477,51.31239],[0.21787,51.31155],[0.21781,51.31208],[0.21918,51.31225],[0.22035,51.31381],[0.2188,51.31415],[0.21683,51.31569],[0.21296,51.31653],[0.21388,51.31744],[0.21717,51.3174],[0.22162,51.31809],[0.2266,51.32081],[0.23027,51.32185],[0.23529,51.32127]]]}},{"type":"Feature","properties":{"kind":"ward","code":"E05009961","name":"Leigh and Chiddingstone Causeway","label":[0.16569,51.20607]},"geometry":{"type":"Polygon","coordinates":[[[0.20054,51.23376],[0.20094,51.23149],[0.20345,51.22829],[0.20877,51.22571],[0.21234,51.2246],[0.21166,51.22375],[0.21225,51.22285],[0.21143,51.22187],[0.20732,51.22184],[0.20195,51.22055],[0.20146,51.21824],[0.20428,51.21618],[0.20487,51.21404],[0.20792,51.21059],[0.21535,51.20733],[0.21574,51.20783],[0.21705,51.20773],[0.21824,51.20586],[0.2193,51.2057],[0.22535,51.20731],[0.22648,51.20339],[0.22848,51.20169],[0.23157,51.20146],[0.23637,51.20219],[0.23877,51.20062],[0.23828,51.19979],[0.24003,51.19872],[0.24054,51.19902],[0.24182,51.19862],[0.24955,51.20184],[0.25081,51.20058],[0.25098,51.19844],[0.25037,51.19778],[0.24816,51.19773],[0.24831,51.197],[0.24722,51.19637],[0.248,51.19532],[0.24581,51.19533],[0.24711,51.19454],[0.24677,51.19425],[0.2447,51.19422],[0.24539,51.19191],[0.23977,51.19303],[0.23946,51.19205],[0.23601,51.19226],[0.23494,51.19294],[0.2319,51.19335],[0.23123,51.19197],[0.22897,51.19201],[0.22954,51.19122],[0.22872,51.19065],[0.22882,51.18595],[0.22696,51.18411],[0.21927,51.17999],[0.2163,51.17914],[0.21809,51.17751],[0.21221,51.17545],[0.20738,51.17536],[0.20346,51.17123],[0.20285,51.17126],[0.20218,51.17261],[0.19937,51.17328],[0.198,51.17514],[0.20008,51.17639],[0.19888,51.17952],[0.18213,51.18558],[0.18129,51.18733],[0.18196,51.18847],[0.17939,51.19067],[0.17452,51.18925],[0.16815,51.1891],[0.1687,51.19036],[0.16566,51.19101],[0.16554,51.18999],[0.16415,51.18985],[0.1627,51.19033],[0.16241,51.18936],[0.16177,51.18965],[0.159,51.18921],[0.1582,51.18968],[0.15618,51.18896],[0.15568,51.18926],[0.15383,51.18893],[0.15312,51.18917],[0.15349,51.1898],[0.1523,51.18964],[0.15242,51.19029],[0.14817,51.19036],[0.1458,51.19213],[0.14611,51.19317],[0.14521,51.19367],[0.14614,51.19424],[0.1454,51.19459],[0.1458,51.19502],[0.14456,51.19705],[0.14252,51.19717],[0.13908,51.19636],[0.13702,51.19876],[0.13691,51.20152],[0.13452,51.20213],[0.13334,51.20374],[0.13474,51.2059],[0.13869,51.2061],[0.14192,51.20763],[0.1415,51.20919],[0.14233,51.2123],[0.1443,51.21295],[0.143,51.21474],[0.14181,51.21466],[0.14045,51.21628],[0.14052,51.21731],[0.14402,51.21782],[0.14378,51.22016],[0.14281,51.22027],[0.14345,51.22098],[0.14238,51.22161],[0.14627,51.22325],[0.15133,51.22421],[0.16255,51.22353],[0.17199,51.22541],[0.1738,51.22619],[0.17316,51.22471],[0.17431,51.22019],[0.17626,51.21945],[0.18795,51.21809],[0.18996,51.21926],[0.19372,51.22353],[0.19573,51.22459],[0.19913,51.22798],[0.19926,51.22906],[0.19839,51.22999],[0.19921,51.2317],[0.19825,51.23194],[0.19746,51.234],[0.20054,51.23376]]]}},{"type":"Feature","properties":{"kind":"ward","code":"E05009962","name":"Otford and Shoreham","label":[0.1871,51.32129]},"geometry":{"type":"Polygon","coordinates":[[[0.23037,51.33489],[0.23204,51.33295],[0.23962,51.33015],[0.24061,51.32937],[0.23258,51.32533],[0.23529,51.32127],[0.23027,51.32185],[0.2266,51.32081],[0.22162,51.31809],[0.21717,51.3174],[0.21388,51.31744],[0.21296,51.31653],[0.21683,51.31569],[0.2188,51.31415],[0.22035,51.31381],[0.21918,51.31225],[0.21781,51.31208],[0.21787,51.31155],[0.21477,51.31239],[0.21401,51.31079],[0.2083,51.31164],[0.20431,51.30557],[0.20297,51.30047],[0.20584,51.29964],[0.19908,51.29992],[0.19701,51.29874],[0.19631,51.29654],[0.19493,51.29666],[0.19411,51.29608],[0.19349,51.29738],[0.18919,51.29728],[0.18612,51.29893],[0.17072,51.30377],[0.16988,51.30607],[0.16411,51.31267],[0.16129,51.31968],[0.15831,51.32346],[0.15987,51.32595],[0.1604,51.32893],[0.16238,51.33114],[0.16634,51.3387],[0.16604,51.3393],[0.16412,51.33974],[0.157,51.34336],[0.15768,51.34625],[0.16199,51.3457],[0.16225,51.34668],[0.16619,51.34619],[0.16626,51.34653],[0.17347,51.34613],[0.17756,51.34978],[0.17553,51.35092],[0.17834,51.35337],[0.19667,51.35173],[0.19869,51.35062],[0.20006,51.34904],[0.20046,51.34616],[0.20181,51.34534],[0.20499,51.34558],[0.20651,51.34496],[0.20449,51.33961],[0.20571,51.33942],[0.20425,51.33572],[0.20848,51.33518],[0.20964,51.3317],[0.20925,51.32947],[0.21169,51.32824],[0.21205,51.32744],[0.21441,51.3291],[0.21389,51.33051],[0.21522,51.33219],[0.21603,51.33214],[0.21629,51.33406],[0.21751,51.33415],[0.21842,51.33496],[0.21849,51.33619],[0.21956,51.33641],[0.21804,51.3388],[0.21942,51.34045],[0.2242,51.3389],[0.22433,51.33558],[0.22752,51.33667],[0.22867,51.33497],[0.22963,51.33445],[0.23037,51.33489]]]}},{"type":"Feature","properties":{"kind":"ward","code":"E05009963","name":"Penshurst, Fordcombe and Chiddingstone","label":[0.15942,51.16938]},"geometry":{"type":"Polygon","coordinates":[[[0.14238,51.22161],[0.14345,51.22098],[0.14281,51.22027],[0.14378,51.22016],[0.14402,51.21782],[0.14052,51.21731],[0.14045,51.21628],[0.14181,51.21466],[0.143,51.21474],[0.1443,51.21295],[0.14233,51.2123],[0.1415,51.20919],[0.14192,51.20763],[0.13869,51.2061],[0.13474,51.2059],[0.13334,51.20374],[0.13452,51.20213],[0.13691,51.20152],[0.13765,51.19741],[0.13908,51.19636],[0.14252,51.19717],[0.14456,51.19705],[0.1458,51.19502],[0.1454,51.19459],[0.14614,51.19424],[0.14521,51.19367],[0.14611,51.19317],[0.1458,51.19213],[0.14676,51.19123],[0.14817,51.19036],[0.15242,51.19029],[0.1523,51.18964],[0.15349,51.1898],[0.15312,51.18917],[0.15383,51.18893],[0.15568,51.18926],[0.15618,51.18896],[0.1582,51.18968],[0.159,51.18921],[0.16177,51.18965],[0.16241,51.18936],[0.1627,51.19033],[0.16415,51.18985],[0.16554,51.18999],[0.16566,51.19101],[0.1687,51.19036],[0.16815,51.1891],[0.17452,51.18925],[0.17939,51.19067],[0.18196,51.18847],[0.18129,51.18733],[0.18213,51.18558],[0.19888,51.17952],[0.20008,51.17639],[0.19097,51.17138],[0.19064,51.16796],[0.19571,51.16499],[0.20147,51.16014],[0.20315,51.16173],[0.20546,51.16087],[0.20566,51.15868],[0.20867,51.15917],[0.21032,51.15662],[0.21312,51.15498],[0.21539,51.15435],[0.21213,51.15163],[0.20595,51.15113],[0.20351,51.14953],[0.20026,51.14599],[0.19643,51.14642],[0.19477,51.14488],[0.19359,51.14245],[0.19346,51.13944],[0.19111,51.13955],[0.18899,51.13869],[0.18745,51.13639],[0.1831,51.1349],[0.18041,51.1318],[0.17585,51.13372],[0.17432,51.13292],[0.17,51.13217],[0.16788,51.13215],[0.1673,51.13354],[0.16444,51.13276],[0.15971,51.13887],[0.16231,51.13968],[0.16097,51.14063],[0.16012,51.14053],[0.15989,51.14104],[0.15719,51.14071],[0.15545,51.14197],[0.153,51.14216],[0.15189,51.14287],[0.15019,51.14254],[0.14977,51.14299],[0.14845,51.14274],[0.1481,51.14316],[0.14457,51.14325],[0.14454,51.14402],[0.14128,51.14524],[0.14138,51.14583],[0.13949,51.14628],[0.1396,51.14672],[0.13693,51.14645],[0.13602,51.14701],[0.13563,51.14995],[0.13737,51.15187],[0.13639,51.1527],[0.13649,51.15551],[0.1357,51.15705],[0.12792,51.15918],[0.12611,51.16035],[0.12607,51.16189],[0.12198,51.166],[0.11822,51.16639],[0.12081,51.16683],[0.1191,51.17113],[0.11805,51.17161],[0.12221,51.17896],[0.12253,51.1801],[0.12149,51.18332],[0.1244,51.18903],[0.12383,51.1919],[0.12506,51.19527],[0.12534,51.19596],[0.12624,51.19611],[0.12478,51.19695],[0.12242,51.19977],[0.12114,51.19969],[0.12011,51.20253],[0.11909,51.20277],[0.12066,51.20645],[0.11994,51.20743],[0.12042,51.20856],[0.12284,51.20983],[0.12542,51.21227],[0.12466,51.21517],[0.12208,51.21724],[0.11934,51.22572],[0.12193,51.22699],[0.12438,51.22739],[0.12694,51.22942],[0.12921,51.2282],[0.13151,51.22475],[0.1354,51.22275],[0.14238,51.22161]]]}},{"type":"Feature","properties":{"kind":"ward","code":"E05011559","name":"Seal and Weald","label":[0.23407,51.28174]},"geometry":{"type":"Polygon","coordinates":[[[0.25954,51.29573],[0.25984,51.29512],[0.26102,51.29492],[0.26016,51.29301],[0.26121,51.29151],[0.26136,51.28914],[0.25857,51.28588],[0.25775,51.27956],[0.25517,51.27641],[0.25944,51.27386],[0.26049,51.27231],[0.26051,51.27021],[0.26315,51.2692],[0.2649,51.26772],[0.26516,51.26007],[0.26459,51.257],[0.26384,51.25579],[0.26228,51.25536],[0.26129,51.25445],[0.25916,51.25495],[0.25448,51.25456],[0.24733,51.25529],[0.24646,51.25188],[0.25045,51.24702],[0.24911,51.24291],[0.24771,51.24232],[0.24734,51.24],[0.24809,51.23853],[0.24701,51.23769],[0.24118,51.23698],[0.23096,51.23223],[0.22946,51.23337],[0.22544,51.23895],[0.22443,51.24075],[0.22494,51.24355],[0.22309,51.24497],[0.21899,51.24336],[0.2141,51.23909],[0.20812,51.23585],[0.20054,51.23376],[0.19746,51.234],[0.19825,51.23194],[0.19921,51.2317],[0.19839,51.22999],[0.19926,51.22906],[0.19913,51.22798],[0.19573,51.22459],[0.19372,51.22353],[0.18996,51.21926],[0.18795,51.21809],[0.17626,51.21945],[0.17431,51.22019],[0.17316,51.22471],[0.1738,51.22619],[0.17199,51.22541],[0.16255,51.22353],[0.16152,51.22434],[0.16152,51.2255],[0.16305,51.22707],[0.16344,51.23033],[0.16451,51.23199],[0.16449,51.23285],[0.16296,51.23344],[0.16482,51.23477],[0.16654,51.23468],[0.16901,51.23539],[0.16591,51.23765],[0.16589,51.23881],[0.1636,51.24123],[0.16541,51.24884],[0.16354,51.25067],[0.16573,51.25129],[0.17205,51.25118],[0.17519,51.25009],[0.17566,51.25081],[0.17772,51.25152],[0.1795,51.24956],[0.18137,51.24943],[0.18905,51.2504],[0.19312,51.25141],[0.20073,51.25148],[0.20392,51.24921],[0.20559,51.24941],[0.21188,51.25404],[0.22086,51.25763],[0.22164,51.25857],[0.22266,51.25879],[0.22436,51.26144],[0.22529,51.2645],[0.22378,51.26637],[0.219,51.26903],[0.21889,51.271],[0.21667,51.27147],[0.21291,51.27347],[0.20718,51.27511],[0.20966,51.27558],[0.20719,51.27896],[0.20756,51.27991],[0.20687,51.28132],[0.20524,51.28236],[0.20681,51.28535],[0.2064,51.28675],[0.20843,51.2894],[0.21373,51.28937],[0.21378,51.29279],[0.21455,51.29321],[0.2109,51.29731],[0.20584,51.29964],[0.20644,51.30022],[0.21261,51.29952],[0.21527,51.30017],[0.21565,51.29962],[0.21987,51.30006],[0.22195,51.29884],[0.22602,51.29812],[0.2269,51.29844],[0.22973,51.29714],[0.23392,51.29694],[0.23504,51.29619],[0.23765,51.29597],[0.24282,51.29616],[0.24471,51.2957],[0.24919,51.29665],[0.25259,51.2964],[0.25466,51.29554],[0.25954,51.29573]]]}},{"type":"Feature","properties":{"kind":"ward","code":"E05005026","name":"Sevenoaks Eastern","label":[0.20017,51.28032]},"geometry":{"type":"Polygon","coordinates":[[[0.20718,51.27511],[0.20306,51.27642],[0.20026,51.27654],[0.19606,51.27595],[0.19301,51.27426],[0.19566,51.28854],[0.20072,51.28855],[0.20843,51.2894],[0.2064,51.28675],[0.20681,51.28535],[0.20524,51.28236],[0.20687,51.28132],[0.20756,51.27991],[0.20719,51.27896],[0.20966,51.27558],[0.20718,51.27511]]]}},{"type":"Feature","properties":{"kind":"ward","code":"E05005027","name":"Sevenoaks Kippington","label":[0.18467,51.25694]},"geometry":{"type":"Polygon","coordinates":[[[0.18103,51.27791],[0.18405,51.27121],[0.1864,51.26895],[0.1871,51.26906],[0.18819,51.26822],[0.1885,51.2661],[0.18997,51.26594],[0.18782,51.2646],[0.18798,51.2635],[0.19057,51.26352],[0.1931,51.26276],[0.19426,51.26381],[0.19671,51.25926],[0.19914,51.25729],[0.19908,51.25325],[0.20073,51.25148],[0.19312,51.25141],[0.18905,51.2504],[0.1795,51.24956],[0.17772,51.25152],[0.17692,51.25127],[0.17344,51.25566],[0.17104,51.26273],[0.17417,51.26288],[0.17575,51.26373],[0.17583,51.26432],[0.17399,51.26624],[0.17295,51.27002],[0.17071,51.27236],[0.17246,51.27392],[0.17214,51.27566],[0.17478,51.27764],[0.17471,51.27823],[0.17368,51.27822],[0.17331,51.27953],[0.17506,51.27948],[0.1764,51.28163],[0.18103,51.27791]]]}},{"type":"Feature","properties":{"kind":"ward","code":"E05005028","name":"Sevenoaks Northern","label":[0.20373,51.2942]},"geometry":{"type":"Polygon","coordinates":[[[0.20584,51.29964],[0.2109,51.29731],[0.21455,51.29321],[0.21378,51.29279],[0.21373,51.28937],[0.20843,51.2894],[0.20072,51.28855],[0.19417,51.28859],[0.18608,51.28643],[0.18091,51.28041],[0.18103,51.27791],[0.17153,51.28533],[0.17038,51.28931],[0.17178,51.2891],[0.17358,51.29038],[0.1756,51.28996],[0.17641,51.29024],[0.17575,51.29106],[0.17619,51.29198],[0.17856,51.29313],[0.18293,51.29712],[0.1851,51.29762],[0.18612,51.29893],[0.18919,51.29728],[0.19349,51.29738],[0.19411,51.29608],[0.19493,51.29666],[0.19631,51.29654],[0.19701,51.29874],[0.19908,51.29992],[0.20584,51.29964]]]}},{"type":"Feature","properties":{"kind":"ward","code":"E05005029","name":"Sevenoaks Town and St John's","label":[0.20943,51.26299]},"geometry":{"type":"Polygon","coordinates":[[[0.19566,51.28854],[0.19301,51.27426],[0.19606,51.27595],[0.20026,51.27654],[0.20306,51.27642],[0.21291,51.27347],[0.21667,51.27147],[0.21889,51.271],[0.219,51.26903],[0.22378,51.26637],[0.22529,51.2645],[0.22266,51.25879],[0.21843,51.25643],[0.21188,51.25404],[0.20559,51.24941],[0.20392,51.24921],[0.19908,51.25325],[0.19914,51.25729],[0.19671,51.25926],[0.19426,51.26381],[0.1931,51.26276],[0.19057,51.26352],[0.18798,51.2635],[0.18782,51.2646],[0.18997,51.26594],[0.1885,51.2661],[0.18819,51.26822],[0.1871,51.26906],[0.1864,51.26895],[0.18405,51.27121],[0.18061,51.27914],[0.18091,51.28041],[0.18608,51.28643],[0.19417,51.28859],[0.19566,51.28854]]]}},{"type":"Feature","properties":{"kind":"ward","code":"E05009964","name":"Swanley Christchurch and Swanley Village","label":[0.19949,51.40462]},"geometry":{"type":"Polygon","coordinates":[[[0.20584,51.40968],[0.21102,51.40745],[0.2114,51.40495],[0.21353,51.40485],[0.21274,51.40275],[0.20686,51.40241],[0.20695,51.39722],[0.20324,51.39803],[0.19922,51.39522],[0.19661,51.39259],[0.19055,51.38396],[0.18525,51.38968],[0.17272,51.38922],[0.16809,51.39009],[0.16322,51.39224],[0.16154,51.39202],[0.16875,51.3933],[0.1932,51.40054],[0.19232,51.40218],[0.18789,51.40328],[0.18642,51.4042],[0.18484,51.40396],[0.1846,51.40488],[0.18919,51.40629],[0.19066,51.41097],[0.19746,51.40952],[0.19813,51.40989],[0.20584,51.40968]]]}},{"type":"Feature","properties":{"kind":"ward","code":"E05005031","name":"Swanley St Mary's","label":[0.16534,51.39673]},"geometry":{"type":"Polygon","coordinates":[[[0.17667,51.39565],[0.16875,51.3933],[0.16146,51.39222],[0.16238,51.39249],[0.15898,51.39582],[0.15643,51.40249],[0.15282,51.40627],[0.1511,51.40664],[0.14869,51.40813],[0.14899,51.40862],[0.15924,51.40496],[0.17667,51.39565]]]}},{"type":"Feature","properties":{"kind":"ward","code":"E05005032","name":"Swanley White Oak","label":[0.17773,51.40111]},"geometry":{"type":"Polygon","coordinates":[[[0.15293,51.40871],[0.15938,51.40837],[0.16145,51.40716],[0.16349,51.4068],[0.16393,51.40841],[0.16683,51.40861],[0.1669,51.40742],[0.16954,51.40743],[0.16918,51.40648],[0.17491,51.40656],[0.17897,51.40586],[0.18484,51.40396],[0.18642,51.4042],[0.18789,51.40328],[0.19232,51.40218],[0.1932,51.40054],[0.17667,51.39565],[0.15924,51.40496],[0.14899,51.40862],[0.14931,51.40914],[0.15293,51.40871]]]}},{"type":"Feature","properties":{"kind":"ward","code":"E05009965","name":"Westerham and Crockham Hill","label":[0.06812,51.27613]},"geometry":{"type":"Polygon","coordinates":[[[0.08158,51.29184],[0.08507,51.28857],[0.08742,51.28464],[0.08937,51.27924],[0.09475,51.27141],[0.09397,51.269],[0.09159,51.26675],[0.08963,51.2664],[0.08895,51.26504],[0.09262,51.26157],[0.09272,51.25846],[0.09165,51.2547],[0.09349,51.25344],[0.09472,51.25006],[0.09572,51.24922],[0.09699,51.24953],[0.09781,51.24716],[0.09782,51.24664],[0.09718,51.24703],[0.09736,51.24428],[0.09493,51.24204],[0.09368,51.23883],[0.09498,51.23763],[0.09452,51.23504],[0.09549,51.23273],[0.09432,51.22852],[0.0955,51.22684],[0.08801,51.22702],[0.08787,51.22551],[0.08926,51.22558],[0.08963,51.22095],[0.08452,51.22261],[0.08291,51.22108],[0.08098,51.2203],[0.07784,51.21984],[0.07756,51.22044],[0.07554,51.21989],[0.07388,51.2202],[0.07148,51.21954],[0.06751,51.22124],[0.05961,51.22297],[0.05586,51.22321],[0.05097,51.22271],[0.04283,51.22461],[0.04369,51.22583],[0.0423,51.22738],[0.04386,51.22978],[0.04381,51.23089],[0.04606,51.23332],[0.04803,51.23376],[0.05286,51.23653],[0.05393,51.23814],[0.05356,51.23933],[0.05539,51.24056],[0.05624,51.24318],[0.05736,51.24406],[0.05824,51.24778],[0.05705,51.25129],[0.05513,51.25238],[0.05384,51.25408],[0.05427,51.25659],[0.05194,51.26268],[0.04968,51.26569],[0.04961,51.26803],[0.04803,51.27012],[0.0454,51.27666],[0.04817,51.28565],[0.04674,51.28859],[0.0424,51.29267],[0.04477,51.29309],[0.04573,51.294],[0.05079,51.29399],[0.05439,51.29209],[0.05605,51.2924],[0.05851,51.28935],[0.06756,51.29038],[0.07337,51.29161],[0.08158,51.29184]]]}}]}